{
    "links": {
        "self": "http://www.neowsapp.com/rest/v1/neo/3736818?api_key=iIulBulltgU6a56xZRHN4H3l9WmuAYTsLGpBGhQ2"
    },
    "id": "3736818",
    "neo_reference_id": "3736818",
    "name": "(2015 YD)",
    "designation": "2015 YD",
    "nasa_jpl_url": "http://ssd.jpl.nasa.gov/sbdb.cgi?sstr=3736818",
    "absolute_magnitude_h": 24.1,
    "estimated_diameter": {
        "kilometers": {
            "estimated_diameter_min": 0.040230458,
            "estimated_diameter_max": 0.0899580388
        },
        "meters": {
            "estimated_diameter_min": 40.2304579834,
            "estimated_diameter_max": 89.9580388169
        },
        "miles": {
            "estimated_diameter_min": 0.0249980399,
            "estimated_diameter_max": 0.0558973165
        },
        "feet": {
            "estimated_diameter_min": 131.9896957704,
            "estimated_diameter_max": 295.1379320721
        }
    },
    "is_potentially_hazardous_asteroid": false,
    "close_approach_data": [
        {
            "close_approach_date": "2015-12-12",
            "close_approach_date_full": "2015-Dec-12 20:50",
            "epoch_date_close_approach": 1449953400000,
            "relative_velocity": {
                "kilometers_per_second": "6.5264501301",
                "kilometers_per_hour": "23495.2204684623",
                "miles_per_hour": "14599.0162960843"
            },
            "miss_distance": {
                "astronomical": "0.0646926971",
                "lunar": "25.1654591719",
                "kilometers": "9677889.690715177",
                "miles": "6013561.8012443626"
            },
            "orbiting_body": "Earth"
        },
        {
            "close_approach_date": "2034-10-09",
            "close_approach_date_full": "2034-Oct-09 01:06",
            "epoch_date_close_approach": 2043968760000,
            "relative_velocity": {
                "kilometers_per_second": "18.1927401428",
                "kilometers_per_hour": "65493.8645140757",
                "miles_per_hour": "40695.3404254266"
            },
            "miss_distance": {
                "astronomical": "0.4368386506",
                "lunar": "169.9302350834",
                "kilometers": "65350131.663434222",
                "miles": "40606688.8584753836"
            },
            "orbiting_body": "Earth"
        },
        {
            "close_approach_date": "2169-10-07",
            "close_approach_date_full": "2169-Oct-07 23:17",
            "epoch_date_close_approach": 6304087020000,
            "relative_velocity": {
                "kilometers_per_second": "20.0348733678",
                "kilometers_per_hour": "72125.5441240102",
                "miles_per_hour": "44816.0082363884"
            },
            "miss_distance": {
                "astronomical": "0.4997083735",
                "lunar": "194.3865572915",
                "kilometers": "74755308.296764445",
                "miles": "46450794.623641541"
            },
            "orbiting_body": "Earth"
        },
        {
            "close_approach_date": "2196-10-08",
            "close_approach_date_full": "2196-Oct-08 11:56",
            "epoch_date_close_approach": 7156209360000,
            "relative_velocity": {
                "kilometers_per_second": "19.7166789855",
                "kilometers_per_hour": "70980.0443479724",
                "miles_per_hour": "44104.2392227721"
            },
            "miss_distance": {
                "astronomical": "0.486189852",
                "lunar": "189.127852428",
                "kilometers": "72732966.27481524",
                "miles": "45194169.561680712"
            },
            "orbiting_body": "Earth"
        }
    ],
    "orbital_data": {
        "orbit_id": "16",
        "orbit_determination_date": "2017-04-06 08:29:46",
        "first_observation_date": "2015-12-16",
        "last_observation_date": "2016-01-20",
        "data_arc_in_days": 35,
        "observations_used": 80,
        "orbit_uncertainty": "7",
        "minimum_orbit_intersection": ".0519483",
        "jupiter_tisserand_invariant": "3.758",
        "epoch_osculation": "2459000.5",
        "eccentricity": ".4678738122279926",
        "semi_major_axis": "1.940890831155899",
        "inclination": "3.824643614217044",
        "ascending_node_longitude": "267.4565819577198",
        "orbital_period": "987.6432262865221",
        "perihelion_distance": "1.032798838864632",
        "perihelion_argument": "159.2918863805157",
        "aphelion_distance": "2.848982823447167",
        "perihelion_time": "2459333.225122826783",
        "mean_anomaly": "238.7203303484282",
        "mean_motion": ".3645040946147911",
        "equinox": "J2000",
        "orbit_class": {
            "orbit_class_type": "AMO",
            "orbit_class_description": "Near-Earth asteroid orbits similar to that of 1221 Amor",
            "orbit_class_range": "1.017 AU < q (perihelion) < 1.3 AU"
        }
    },
    "is_sentry_object": false
}